STARLINK-36442          
1 67413U 26005K   26020.83335648 -.01454348  60439-3 -40604-2 0  9996
2 67413  43.0009 156.5432 0001878 281.0876  41.9167 15.92826075  2499
STARLINK-36506          
1 67414U 26005L   26020.83335648 -.01467249  61456-3 -40865-2 0  9990
2 67414  43.0012 156.5391 0001816 280.4062  44.1694 15.92874772  2497
STARLINK-36468          
1 67415U 26005M   26020.83335648 -.01456814  60679-3 -40488-2 0  9994
2 67415  43.0012 156.5358 0001869 285.0716  40.8395 15.92913147  2442
STARLINK-36487          
1 67416U 26005N   26020.83335648 -.01467043  61495-3 -40663-2 0  9993
2 67416  43.0012 156.5316 0001911 284.6979  42.8377 15.92965915  2498
STARLINK-36374          
1 67417U 26005P   26020.83335648 -.01479391  62478-3 -40904-2 0  9993
2 67417  43.0012 156.5272 0001789 287.7038  41.6946 15.93015260  2492
STARLINK-36455          
1 67418U 26005Q   26020.83335648 -.01488045  63186-3 -41021-2 0  9998
2 67418  43.0012 156.5215 0001850 283.3456  48.1479 15.93072752  2497
STARLINK-36424          
1 67419U 26005R   26020.83335648 -.01501910  64307-3 -41286-2 0  9995
2 67419  43.0013 156.5164 0001892 282.4590  51.1494 15.93128326  2497
STARLINK-35564          
1 67420U 26005S   26020.83335648 -.01497690  64004-3 -41069-2 0  9999
2 67420  43.0014 156.5121 0001847 286.7083  48.7063 15.93174484  2385
STARLINK-36431          
1 67421U 26005T   26021.65271816  .00854119  00000+0  23962-2 0  9991
2 67421  42.9896 151.4201 0000894 294.5574  65.5207 15.90797217  2411
STARLINK-36418          
1 67422U 26005U   26020.83335648 -.01513096  65281-3 -41286-2 0  9999
2 67422  43.0013 156.5035 0001713 287.1076  51.6923 15.93271410  2441
STARLINK-36465          
1 67423U 26005V   26020.83335648 -.01514224  65402-3 -41206-2 0  9991
2 67423  43.0017 156.4982 0001937 286.2368  54.6619 15.93321673  2237
STARLINK-36362          
1 67424U 26005W   26020.83335648 -.01533555  66983-3 -41611-2 0  9995
2 67424  43.0016 156.4933 0001965 287.2749  55.5908 15.93379452  2495
STARLINK-36447          
1 67425U 26005X   26020.83335648 -.01534088  67059-3 -41514-2 0  9995
2 67425  43.0017 156.4879 0001864 282.9461  62.0113 15.93430507  2497
STARLINK-36146          
1 67426U 26005Y   26020.83335648 -.01553107  68635-3 -41905-2 0  9994
2 67426  43.0015 156.4829 0001835 287.6666  59.2229 15.93489100  2442
STARLINK-36459          
1 67427U 26005Z   26020.83335648 -.01542473  67798-3 -41533-2 0  9995
2 67427  43.0015 156.4780 0001819 287.6250  61.1569 15.93526223  2414
STARLINK-36464          
1 67428U 26005AA  26020.83335648 -.01541922  67814-3 -41319-2 0  9995
2 67428  43.0017 156.4694 0001907 287.2751  64.8107 15.93616581  2494
STARLINK-36513          
1 67429U 26005AB  26020.83335648 -.01555459  68952-3 -41563-2 0  9991
2 67429  43.0016 156.4656 0001712 285.0675  68.5992 15.93673136  2499
STARLINK-36515          
1 67430U 26005AC  26020.83335648 -.01538333  67493-3 -41325-2 0  9990
2 67430  43.0015 156.4737 0001902 282.9532  67.5647 15.93569541  2411
STARLINK-36443          
1 67431U 26005AD  26020.83335648 -.01552074  68705-3 -41376-2 0  9992
2 67431  43.0016 156.4598 0001849 287.1931  68.5894 15.93716078  2445
STARLINK-36460          
1 67432U 26005AE  26022.40229610  .00040665  89909-5  13024-3 0  9995
2 67432  43.0045 146.6960 0001734 283.9766  76.0916 15.91306947  2745
YAOGAN-50 01            
1 67433U 26006A   26023.57347586  .00000186  00000+0 -97606-6 0  9994
2 67433 142.0301 236.9279 0000522 275.8951  84.1709 13.83249308  1405
CZ-6A R/B               
1 67434U 26006B   26023.55115616  .00001744  00000+0  20566-3 0  9998
2 67434 142.0431 242.2942 0202197 154.7171 206.3604 14.62265721  1461
HULIANWANG DIGUI-137    
1 67435U 26007A   26020.50743721  .00000099  00000+0  19094-3 0  9992
2 67435  50.0081 267.0622 0008366 293.1094  66.8923 13.92122219   968
HULIANWANG DIGUI-138    
1 67436U 26007B   26021.40320983  .00848989  00000+0  65955+0 0  9995
2 67436  43.6515 264.6555 0082162  62.0999 109.0201 13.90384952   961
HULIANWANG DIGUI-139    
1 67437U 26007C   26020.50776287  .00000137  00000+0  22102-3 0  9994
2 67437  50.0030 267.0572 0008140 288.3291  71.6723 13.92055381   960
HULIANWANG DIGUI-140    
1 67438U 26007D   26021.40392005  .00001193  00000+0  78500-3 0  9993
2 67438  43.0663 261.8086 0206062   8.9624 164.2035 13.91531030   960
HULIANWANG DIGUI-141    
1 67439U 26007E   26022.33364190  .00001167  00000+0  78500-3 0  9992
2 67439  41.3081 261.8180 0188270 114.4380  45.8715 13.91835243  1090
HULIANWANG DIGUI-142    
1 67440U 26007F   26021.40108219  .00352905  00000+0  27551+0 0  9994
2 67440  49.9477 263.4591 0007657  78.4876  89.4081 13.91765081   964
HULIANWANG DIGUI-143    
1 67441U 26007G   26020.57819648  .00000151  00000+0  23080-3 0  9997
2 67441  50.0104 266.7735 0006309 291.6377  68.3850 13.92329917   975
HULIANWANG DIGUI-144    
1 67442U 26007H   26020.50613640  .00000079  00000+0  17509-3 0  9993
2 67442  50.0092 267.0578 0007469 301.7918  58.2254 13.92386173   965
HULIANWANG DIGUI-145    
1 67443U 26007J   26023.59161431  .00000137  00000+0  22218-3 0  9990
2 67443  50.0001 254.7246 0002738 350.0027  10.0818 13.91810859  1395
CZ-8A R/B               
1 67444U 26007K   26023.65648102  .00000146  00000+0  15324-3 0  9993
2 67444  50.0090 253.0552 0092186 117.4293 243.6029 14.13547066  1415
STARLINK-36542          
1 67445U 26008A   26023.58335648 -.01019362  32269-3 -25136-2 0  9995
2 67445  43.0014 107.9804 0001154 288.5795  31.7764 15.95088595  2548
STARLINK-36539          
1 67446U 26008B   26023.58335648 -.01021374  32411-3 -25078-2 0  9996
2 67446  43.0014 107.9748 0001641 280.2894  42.2618 15.95166740  2540
STARLINK-36440          
1 67447U 26008C   26023.58335648 -.01033926  33169-3 -25274-2 0  9992
2 67447  43.0016 107.9690 0001226 287.3901  37.5446 15.95251600  2541
STARLINK-36423          
1 67448U 26008D   26023.58335648 -.01039017  33493-3 -25298-2 0  9996
2 67448  43.0016 107.9633 0001217 287.0110  40.0570 15.95325958  2543
STARLINK-36519          
1 67449U 26008E   26023.58335648 -.01047027  33996-3 -25375-2 0  9991
2 67449  43.0015 107.9576 0001239 287.1827  42.1986 15.95412445  2541
STARLINK-36525          
1 67450U 26008F   26023.58335648 -.01057449  34651-3 -25490-2 0  9999
2 67450  43.0014 107.9508 0001221 286.8235  45.2659 15.95513413  2545
STARLINK-36511          
1 67451U 26008G   26023.58335648 -.01065586  35176-3 -25546-2 0  9996
2 67451  43.0014 107.9439 0001227 288.6642  46.2299 15.95615351  2542
STARLINK-36524          
1 67452U 26008H   26023.58335648 -.01074986  35775-3 -25656-2 0  9998
2 67452  43.0014 107.9376 0001271 289.3341  47.9120 15.95699667  2549
STARLINK-36518          
1 67453U 26008J   26023.58335648 -.01296966  52482-3 -25012-2 0  9993
2 67453  43.0003 107.6780 0001300 288.8729 149.8923 15.99561411  2565
STARLINK-36517          
1 67454U 26008K   26023.58335648 -.01091040  36798-3 -25884-2 0  9999
2 67454  43.0012 107.9301 0001193 285.7341  54.3859 15.95812181  2561
STARLINK-36516          
1 67455U 26008L   26023.58335648 -.01110071  38062-3 -26034-2 0  9990
2 67455  43.0016 107.9161 0001236 284.1488  61.7261 15.96026584  2545
STARLINK-36493          
1 67456U 26008M   26023.58335648 -.01088689  36673-3 -25756-2 0  9996
2 67456  43.0016 107.9269 0001185 285.4238  56.1589 15.95863185  2541
STARLINK-36529          
1 67457U 26008N   26023.58335648 -.01096959  37215-3 -25835-2 0  9997
2 67457  43.0015 107.9210 0001214 285.2038  58.5888 15.95947040  2547
STARLINK-36528          
1 67458U 26008P   26023.58335648 -.01109748  38075-3 -25905-2 0  9992
2 67458  43.0017 107.9102 0001247 287.4199  60.7626 15.96111600  2561
STARLINK-36546          
1 67459U 26008Q   26023.58335648 -.01128438  39299-3 -26184-2 0  9999
2 67459  43.0014 107.9028 0001293 288.5021  62.6031 15.96224423  2540
STARLINK-36523          
1 67460U 26008R   26023.58335648 -.01132844  39619-3 -26145-2 0  9990
2 67460  43.0016 107.8963 0001600 284.8358  68.8314 15.96322643  2562
STARLINK-36522          
1 67461U 26008S   26023.58335648 -.01141028  40181-3 -26204-2 0  9997
2 67461  43.0016 107.8905 0001656 283.9422  72.0410 15.96413841  2545
STARLINK-36504          
1 67462U 26008T   26023.58335648 -.01159125  41398-3 -26471-2 0  9992
2 67462  43.0017 107.8839 0001625 282.1283  76.4451 15.96519249  2569
STARLINK-36505          
1 67463U 26008U   26023.58335648 -.01174255  42434-3 -26671-2 0  9998
2 67463  43.0020 107.8772 0001584 283.0605  78.2467 15.96620389  2545
STARLINK-36421          
1 67464U 26008V   26023.58335648 -.01172540  42362-3 -26497-2 0  9990
2 67464  43.0021 107.8701 0001458 283.1740  80.9755 15.96713238  2546
STARLINK-36437          
1 67465U 26008W   26023.58335648 -.01189806  43546-3 -26768-2 0  9990
2 67465  43.0020 107.8637 0001391 283.0764  83.3997 15.96796465  2543
STARLINK-36520          
1 67466U 26008X   26023.58335648 -.01197387  44096-3 -26804-2 0  9996
2 67466  43.0018 107.8570 0001532 280.8480  88.2467 15.96888154  2547
STARLINK-36425          
1 67467U 26008Y   26023.58335648 -.01203851  44570-3 -26828-2 0  9994
2 67467  43.0019 107.8512 0001379 283.4927  87.9485 15.96970947  2547
STARLINK-36414          
1 67468U 26008Z   26023.58335648 -.01114315  39193-3 -23187-2 0  9991
2 67468  43.0020 107.7718 0001703 278.4176 124.1980 15.98186490  2546
STARLINK-36441          
1 67469U 26008AA  26023.58335648 -.01183461  44012-3 -23862-2 0  9996
2 67469  43.0019 107.7330 0001466 286.8102 130.9386 15.98758519  2545
STARLINK-36454          
1 67470U 26008AB  26023.58335648 -.01208785  45865-3 -24050-2 0  9992
2 67470  43.0017 107.7169 0001534 286.5167 137.5908 15.98998224  2541
STARLINK-36334          
1 67471U 26008AC  26023.58335648 -.01142688  41148-3 -23436-2 0  9999
2 67471  43.0018 107.7534 0001531 283.9718 125.7893 15.98449124  2541
